start=new Date('2022-09-24T00:00:00.000Z').valueOf();
sats=[{"ECCENTRICITY":"0.00019250","TLE_LINE1":"1 49751U 21115AD  22266.71615612 -.00000688  00000-0 -25161-4 0  9996","OBJECT_TYPE":"PAYLOAD","MEAN_MOTION_DDOT":"0.0000000000000","REV_AT_EPOCH":"4487","ARG_OF_PERICENTER":"43.6410","TLE_LINE2":"2 49751  53.2179  58.8401 0001925  43.6410 316.4734 15.08829668 44870","MEAN_ELEMENT_THEORY":"SGP4","MEAN_MOTION":"15.08829668","MEAN_ANOMALY":"316.4734","DECAY_DATE":null,"OBJECT_NAME":"STARLINK-3229","PERIAPSIS":"538.445","RA_OF_ASC_NODE":"58.8401","REF_FRAME":"TEME","SITE":"AFETR","GP_ID":"213334656","SEMIMAJOR_AXIS":"6917.912","INCLINATION":"53.2179","TIME_SYSTEM":"UTC","OBJECT_ID":"2021-115AD","RCS_SIZE":"LARGE","LAUNCH_DATE":"2021-12-02","PERIOD":"95.438","CLASSIFICATION_TYPE":"U","ELEMENT_SET_NO":"999","NORAD_CAT_ID":"49751","MEAN_MOTION_DOT":"-0.00000688","APOAPSIS":"541.109","EPHEMERIS_TYPE":"0","COUNTRY_CODE":"US","BSTAR":"-0.00002516100000","FILE":"3581681","CENTER_NAME":"EARTH","EPOCH":"2022-09-23T17:11:15.888768"},{"EPHEMERIS_TYPE":"0","APOAPSIS":"540.966","COUNTRY_CODE":"US","BSTAR":"0.00002248400000","CENTER_NAME":"EARTH","FILE":"3581681","EPOCH":"2022-09-23T17:49:40.712448","LAUNCH_DATE":"2021-12-02","CLASSIFICATION_TYPE":"U","PERIOD":"95.438","NORAD_CAT_ID":"49752","ELEMENT_SET_NO":"999","MEAN_MOTION_DOT":"0.00000070","RA_OF_ASC_NODE":"48.7223","OBJECT_NAME":"STARLINK-3209","PERIAPSIS":"538.557","REF_FRAME":"TEME","GP_ID":"213335907","SITE":"AFETR","SEMIMAJOR_AXIS":"6917.897","RCS_SIZE":"LARGE","INCLINATION":"53.2170","TIME_SYSTEM":"UTC","OBJECT_ID":"2021-115AE","MEAN_MOTION_DDOT":"0.0000000000000","OBJECT_TYPE":"PAYLOAD","TLE_LINE1":"1 49752U 21115AE  22266.74283232  .00000070  00000-0  22484-4 0  9997","ECCENTRICITY":"0.00017410","REV_AT_EPOCH":"4501","ARG_OF_PERICENTER":"57.4841","MEAN_ANOMALY":"302.6319","DECAY_DATE":null,"MEAN_ELEMENT_THEORY":"SGP4","TLE_LINE2":"2 49752  53.2170  48.7223 0001741  57.4841 302.6319 15.08834624 45010","MEAN_MOTION":"15.08834624"},{"ARG_OF_PERICENTER":"55.2971","DECAY_DATE":null,"MEAN_ANOMALY":"304.8167","MEAN_MOTION":"15.08833687","TLE_LINE2":"2 49753  53.2185  58.8142 0001549  55.2971 304.8167 15.08833687 44871","MEAN_ELEMENT_THEORY":"SGP4","MEAN_MOTION_DDOT":"0.0000000000000","TLE_LINE1":"1 49753U 21115AF  22266.72351085 -.00000382  00000-0 -59394-5 0  9997","OBJECT_TYPE":"PAYLOAD","ECCENTRICITY":"0.00015490","REV_AT_EPOCH":"4487","GP_ID":"213336157","SEMIMAJOR_AXIS":"6917.900","SITE":"AFETR","RCS_SIZE":"LARGE","OBJECT_ID":"2021-115AF","INCLINATION":"53.2185","TIME_SYSTEM":"UTC","RA_OF_ASC_NODE":"58.8142","PERIAPSIS":"538.693","OBJECT_NAME":"STARLINK-3200","REF_FRAME":"TEME","NORAD_CAT_ID":"49753","ELEMENT_SET_NO":"999","MEAN_MOTION_DOT":"-0.00000382","PERIOD":"95.438","CLASSIFICATION_TYPE":"U","LAUNCH_DATE":"2021-12-02","CENTER_NAME":"EARTH","FILE":"3581681","EPOCH":"2022-09-23T17:21:51.337440","EPHEMERIS_TYPE":"0","APOAPSIS":"540.836","BSTAR":"-0.00000593940000","COUNTRY_CODE":"US"},{"REF_FRAME":"TEME","OBJECT_NAME":"STARLINK-3193","PERIAPSIS":"537.783","RA_OF_ASC_NODE":"49.0328","INCLINATION":"53.2181","TIME_SYSTEM":"UTC","OBJECT_ID":"2021-115AG","RCS_SIZE":"LARGE","SITE":"AFETR","GP_ID":"213334406","SEMIMAJOR_AXIS":"6917.867","REV_AT_EPOCH":"4500","ECCENTRICITY":"0.00028170","TLE_LINE1":"1 49754U 21115AG  22266.67018347  .00001443  00000-0  10878-3 0  9992","OBJECT_TYPE":"PAYLOAD","MEAN_MOTION_DDOT":"0.0000000000000","MEAN_ELEMENT_THEORY":"SGP4","TLE_LINE2":"2 49754  53.2181  49.0328 0002817  26.7509 333.3628 15.08844489 45002","MEAN_MOTION":"15.08844489","DECAY_DATE":null,"MEAN_ANOMALY":"333.3628","ARG_OF_PERICENTER":"26.7509","COUNTRY_CODE":"US","BSTAR":"0.00010878000000","APOAPSIS":"541.680","EPHEMERIS_TYPE":"0","EPOCH":"2022-09-23T16:05:03.851808","FILE":"3581681","CENTER_NAME":"EARTH","LAUNCH_DATE":"2021-12-02","CLASSIFICATION_TYPE":"U","PERIOD":"95.437","MEAN_MOTION_DOT":"0.00001443","ELEMENT_SET_NO":"999","NORAD_CAT_ID":"49754"},{"REF_FRAME":"TEME","OBJECT_NAME":"STARLINK-3210","PERIAPSIS":"538.794","RA_OF_ASC_NODE":"58.7762","INCLINATION":"53.2199","TIME_SYSTEM":"UTC","OBJECT_ID":"2021-115AH","RCS_SIZE":"LARGE","SEMIMAJOR_AXIS":"6917.908","GP_ID":"213335156","SITE":"AFETR","REV_AT_EPOCH":"4487","ECCENTRICITY":"0.00014150","TLE_LINE1":"1 49755U 21115AH  22266.73088065 -.00000608  00000-0 -20144-4 0  9996","OBJECT_TYPE":"PAYLOAD","MEAN_MOTION_DDOT":"0.0000000000000","TLE_LINE2":"2 49755  53.2199  58.7762 0001415  59.1278 300.9854 15.08831033 44873","MEAN_ELEMENT_THEORY":"SGP4","MEAN_MOTION":"15.08831033","DECAY_DATE":null,"MEAN_ANOMALY":"300.9854","ARG_OF_PERICENTER":"59.1278","COUNTRY_CODE":"US","BSTAR":"-0.00002014400000","APOAPSIS":"540.752","EPHEMERIS_TYPE":"0","EPOCH":"2022-09-23T17:32:28.088160","FILE":"3581681","CENTER_NAME":"EARTH","LAUNCH_DATE":"2021-12-02","PERIOD":"95.438","CLASSIFICATION_TYPE":"U","MEAN_MOTION_DOT":"-0.00000608","ELEMENT_SET_NO":"999","NORAD_CAT_ID":"49755"},{"SEMIMAJOR_AXIS":"6917.911","GP_ID":"213311704","SITE":"AFETR","RCS_SIZE":"LARGE","INCLINATION":"53.2173","TIME_SYSTEM":"UTC","OBJECT_ID":"2021-115AJ","RA_OF_ASC_NODE":"48.3583","OBJECT_NAME":"STARLINK-3207","PERIAPSIS":"538.678","REF_FRAME":"TEME","ARG_OF_PERICENTER":"57.3925","MEAN_ANOMALY":"302.7221","DECAY_DATE":null,"MEAN_ELEMENT_THEORY":"SGP4","TLE_LINE2":"2 49756  53.2173  48.3583 0001587  57.3925 302.7221 15.08829974 46131","MEAN_MOTION":"15.08829974","MEAN_MOTION_DDOT":"0.0000000000000","TLE_LINE1":"1 49756U 21115AJ  22266.82011546 -.00000200  00000-0  55225-5 0  9993","OBJECT_TYPE":"PAYLOAD","ECCENTRICITY":"0.00015870","REV_AT_EPOCH":"4613","CENTER_NAME":"EARTH","FILE":"3581641","EPOCH":"2022-09-23T19:40:57.975744","EPHEMERIS_TYPE":"0","APOAPSIS":"540.874","COUNTRY_CODE":"US","BSTAR":"0.00000552250000","NORAD_CAT_ID":"49756","ELEMENT_SET_NO":"999","MEAN_MOTION_DOT":"-0.00000200","LAUNCH_DATE":"2021-12-02","PERIOD":"95.438","CLASSIFICATION_TYPE":"U"},{"ELEMENT_SET_NO":"999","NORAD_CAT_ID":"49757","MEAN_MOTION_DOT":"0.00002183","CLASSIFICATION_TYPE":"U","PERIOD":"95.437","LAUNCH_DATE":"2021-12-02","FILE":"3581681","CENTER_NAME":"EARTH","EPOCH":"2022-09-23T19:30:20.902752","APOAPSIS":"540.914","EPHEMERIS_TYPE":"0","BSTAR":"0.00015521000000","COUNTRY_CODE":"US","ARG_OF_PERICENTER":"54.2518","MEAN_MOTION":"15.08846133","MEAN_ELEMENT_THEORY":"SGP4","TLE_LINE2":"2 49757  53.2173  48.3940 0001717  54.2518 305.8633 15.08846133 45022","MEAN_ANOMALY":"305.8633","DECAY_DATE":null,"TLE_LINE1":"1 49757U 21115AK  22266.81274193  .00002183  00000-0  15521-3 0  9996","ECCENTRICITY":"0.00017170","OBJECT_TYPE":"PAYLOAD","MEAN_MOTION_DDOT":"0.0000000000000","REV_AT_EPOCH":"4502","SEMIMAJOR_AXIS":"6917.862","GP_ID":"213335658","SITE":"AFETR","OBJECT_ID":"2021-115AK","INCLINATION":"53.2173","TIME_SYSTEM":"UTC","RCS_SIZE":"LARGE","PERIAPSIS":"538.539","OBJECT_NAME":"STARLINK-3197","RA_OF_ASC_NODE":"48.3940","REF_FRAME":"TEME"},{"MEAN_ELEMENT_THEORY":"SGP4","TLE_LINE2":"2 49758  53.2193  48.9307 0001787  52.1286 307.9867 15.08831338 45005","MEAN_MOTION":"15.08831338","MEAN_ANOMALY":"307.9867","DECAY_DATE":null,"ARG_OF_PERICENTER":"52.1286","REV_AT_EPOCH":"4500","TLE_LINE1":"1 49758U 21115AL  22266.69500026  .00001582  00000-0  11748-3 0  9999","OBJECT_TYPE":"PAYLOAD","ECCENTRICITY":"0.00017870","MEAN_MOTION_DDOT":"0.0000000000000","INCLINATION":"53.2193","TIME_SYSTEM":"UTC","OBJECT_ID":"2021-115AL","RCS_SIZE":"LARGE","GP_ID":"213334906","SEMIMAJOR_AXIS":"6917.907","SITE":"AFETR","REF_FRAME":"TEME","OBJECT_NAME":"STARLINK-3194","PERIAPSIS":"538.536","RA_OF_ASC_NODE":"48.9307","MEAN_MOTION_DOT":"0.00001582","ELEMENT_SET_NO":"999","NORAD_CAT_ID":"49758","LAUNCH_DATE":"2021-12-02","PERIOD":"95.438","CLASSIFICATION_TYPE":"U","EPOCH":"2022-09-23T16:40:48.022464","FILE":"3581681","CENTER_NAME":"EARTH","COUNTRY_CODE":"US","BSTAR":"0.00011748000000","APOAPSIS":"541.008","EPHEMERIS_TYPE":"0"},{"CENTER_NAME":"EARTH","FILE":"3581641","EPOCH":"2022-09-23T19:35:40.262208","EPHEMERIS_TYPE":"0","APOAPSIS":"540.913","COUNTRY_CODE":"US","BSTAR":"0.00011441000000","NORAD_CAT_ID":"49759","ELEMENT_SET_NO":"999","MEAN_MOTION_DOT":"0.00001533","LAUNCH_DATE":"2021-12-02","PERIOD":"95.438","CLASSIFICATION_TYPE":"U","GP_ID":"213311702","SEMIMAJOR_AXIS":"6917.903","SITE":"AFETR","RCS_SIZE":"LARGE","INCLINATION":"53.2185","TIME_SYSTEM":"UTC","OBJECT_ID":"2021-115AM","RA_OF_ASC_NODE":"48.3939","OBJECT_NAME":"STARLINK-3204","PERIAPSIS":"538.624","REF_FRAME":"TEME","ARG_OF_PERICENTER":"56.7839","DECAY_DATE":null,"MEAN_ANOMALY":"303.3312","MEAN_ELEMENT_THEORY":"SGP4","TLE_LINE2":"2 49759  53.2185  48.3939 0001654  56.7839 303.3312 15.08832509 46130","MEAN_MOTION":"15.08832509","MEAN_MOTION_DDOT":"0.0000000000000","TLE_LINE1":"1 49759U 21115AM  22266.81643822  .00001533  00000-0  11441-3 0  9992","ECCENTRICITY":"0.00016540","OBJECT_TYPE":"PAYLOAD","REV_AT_EPOCH":"4613"},{"COUNTRY_CODE":"US","BSTAR":"0.00007507200000","EPHEMERIS_TYPE":"0","APOAPSIS":"540.897","EPOCH":"2022-09-23T16:51:23.351904","CENTER_NAME":"EARTH","FILE":"3581681","LAUNCH_DATE":"2021-12-02","PERIOD":"95.438","CLASSIFICATION_TYPE":"U","MEAN_MOTION_DOT":"0.00000907","NORAD_CAT_ID":"49760","ELEMENT_SET_NO":"999","REF_FRAME":"TEME","RA_OF_ASC_NODE":"48.9033","OBJECT_NAME":"STARLINK-3199","PERIAPSIS":"538.604","RCS_SIZE":"LARGE","INCLINATION":"53.2186","TIME_SYSTEM":"UTC","OBJECT_ID":"2021-115AN","SEMIMAJOR_AXIS":"6917.885","GP_ID":"213335908","SITE":"AFETR","REV_AT_EPOCH":"4501","MEAN_MOTION_DDOT":"0.0000000000000","TLE_LINE1":"1 49760U 21115AN  22266.70235361  .00000907  00000-0  75072-4 0  9992","OBJECT_TYPE":"PAYLOAD","ECCENTRICITY":"0.00016570","DECAY_DATE":null,"MEAN_ANOMALY":"308.6905","TLE_LINE2":"2 49760  53.2186  48.9033 0001657  51.4236 308.6905 15.08838332 45012","MEAN_ELEMENT_THEORY":"SGP4","MEAN_MOTION":"15.08838332","ARG_OF_PERICENTER":"51.4236"}];
